ONEWEB-0636             
1 56077U 23043AH  26104.17200206 -.00000068  00000+0 -21380-3 0  9990
2 56077  87.8939 271.9701 0001862 102.4579 257.6760 13.15547507147994
ONEWEB-0637             
1 56078U 23043AJ  26104.16566224 -.00000012  00000+0 -65857-4 0  9992
2 56078  87.8937 271.9889 0001564 103.4655 256.6650 13.15547415148014
ONEWEB-0647             
1 56079U 23043AK  26103.70457060  .00000050  00000+0  99664-4 0  9992
2 56079  87.8937 272.0935 0001924  97.2066 262.9283 13.15548452147940
ONEWEB-0651             
1 56080U 23043AL  26104.23221936  .00000256  00000+0  64684-3 0  9995
2 56080  87.8934 271.9825 0001734 104.4676 255.6647 13.15547723149217
ONEWEB-0718             
1 56081U 23043AM  26104.22746442  .00000109  00000+0  25604-3 0  9995
2 56081  87.8936 271.9640 0001422  82.1001 278.0291 13.15546500148027
ONEWEB-0561             
1 56710U 23068A   26104.25904435  .00000085  00000+0  17665-3 0  9993
2 56710  87.9140 287.2046 0002058 101.5394 258.5971 13.20772885141069
ONEWEB-0668             
1 56711U 23068B   26104.13549846  .00000101  00000+0  23165-3 0  9993
2 56711  87.9071 241.4936 0001263 102.0393 258.0879 13.16593878143359
ONEWEB-0676             
1 56712U 23068C   26104.14340022  .00000083  00000+0  18364-3 0  9994
2 56712  87.9061 241.5006 0001958 111.0815 249.0526 13.16592914143278
ONEWEB-0677             
1 56713U 23068D   26104.24800436  .00000129  00000+0  28591-3 0  9990
2 56713  87.9140 287.1992 0001433 102.6857 257.4436 13.20774168141366
ONEWEB-0678             
1 56714U 23068E   26103.89154799  .00000015  00000+0  61340-5 0  9990
2 56714  87.8942 272.0168 0002064  94.1367 265.9999 13.15547958140834
ONEWEB-0679             
1 56715U 23068F   26104.10224356 -.00000062  00000+0 -19559-3 0  9990
2 56715  87.9059 241.4977 0001496 118.4963 241.6319 13.16593429143298
ONEWEB-0680             
1 56716U 23068G   26103.82961691  .00000058  00000+0  10865-3 0  9993
2 56716  87.9204 256.7842 0001278 103.9343 256.1933 13.21823344142593
ONEWEB-0681             
1 56717U 23068H   26104.11309614  .00000015  00000+0  53330-5 0  9997
2 56717  87.9194 256.7331 0002391 121.4033 238.7335 13.21826996142625
ONEWEB-0682             
1 56718U 23068J   26104.21954273  .00000234  00000+0  58752-3 0  9990
2 56718  87.8936 271.9536 0001249 101.5978 258.5292 13.15548995141043
ONEWEB-0683             
1 56719U 23068K   26104.16725718  .00000007  00000+0 -15641-4 0  9995
2 56719  87.8945 271.9614 0001495  93.5998 266.5304 13.15547837141009
ONEWEB-0684             
1 56720U 23068L   26104.17518056 -.00000011  00000+0 -63014-4 0  9996
2 56720  87.8945 271.9514 0002803  73.2325 286.9113 13.15548277140836
