[{"OBJECT_NAME":"ONEWEB-0636","OBJECT_ID":"2023-043AH","EPOCH":"2026-04-14T04:07:40.977984","MEAN_MOTION":13.15547507,"ECCENTRICITY":0.0001862,"INCLINATION":87.8939,"RA_OF_ASC_NODE":271.9701,"ARG_OF_PERICENTER":102.4579,"MEAN_ANOMALY":257.676,"EPHEMERIS_TYPE":0,"CLASSIFICATION_TYPE":"U","NORAD_CAT_ID":56077,"ELEMENT_SET_NO":999,"REV_AT_EPOCH":14799,"BSTAR":-0.0002138,"MEAN_MOTION_DOT":-6.8e-07,"MEAN_MOTION_DDOT":0.0},{"OBJECT_NAME":"ONEWEB-0637","OBJECT_ID":"2023-043AJ","EPOCH":"2026-04-14T03:58:33.217536","MEAN_MOTION":13.15547415,"ECCENTRICITY":0.0001564,"INCLINATION":87.8937,"RA_OF_ASC_NODE":271.9889,"ARG_OF_PERICENTER":103.4655,"MEAN_ANOMALY":256.665,"EPHEMERIS_TYPE":0,"CLASSIFICATION_TYPE":"U","NORAD_CAT_ID":56078,"ELEMENT_SET_NO":999,"REV_AT_EPOCH":14801,"BSTAR":-6.5857e-05,"MEAN_MOTION_DOT":-1.2e-07,"MEAN_MOTION_DDOT":0.0},{"OBJECT_NAME":"ONEWEB-0647","OBJECT_ID":"2023-043AK","EPOCH":"2026-04-13T16:54:34.899840","MEAN_MOTION":13.15548452,"ECCENTRICITY":0.0001924,"INCLINATION":87.8937,"RA_OF_ASC_NODE":272.0935,"ARG_OF_PERICENTER":97.2066,"MEAN_ANOMALY":262.9283,"EPHEMERIS_TYPE":0,"CLASSIFICATION_TYPE":"U","NORAD_CAT_ID":56079,"ELEMENT_SET_NO":999,"REV_AT_EPOCH":14794,"BSTAR":9.9664e-05,"MEAN_MOTION_DOT":5e-07,"MEAN_MOTION_DDOT":0.0},{"OBJECT_NAME":"ONEWEB-0651","OBJECT_ID":"2023-043AL","EPOCH":"2026-04-14T05:34:23.752704","MEAN_MOTION":13.15547723,"ECCENTRICITY":0.0001734,"INCLINATION":87.8934,"RA_OF_ASC_NODE":271.9825,"ARG_OF_PERICENTER":104.4676,"MEAN_ANOMALY":255.6647,"EPHEMERIS_TYPE":0,"CLASSIFICATION_TYPE":"U","NORAD_CAT_ID":56080,"ELEMENT_SET_NO":999,"REV_AT_EPOCH":14921,"BSTAR":0.00064684,"MEAN_MOTION_DOT":2.56e-06,"MEAN_MOTION_DDOT":0.0},{"OBJECT_NAME":"ONEWEB-0718","OBJECT_ID":"2023-043AM","EPOCH":"2026-04-14T05:27:32.925888","MEAN_MOTION":13.155465,"ECCENTRICITY":0.0001422,"INCLINATION":87.8936,"RA_OF_ASC_NODE":271.964,"ARG_OF_PERICENTER":82.1001,"MEAN_ANOMALY":278.0291,"EPHEMERIS_TYPE":0,"CLASSIFICATION_TYPE":"U","NORAD_CAT_ID":56081,"ELEMENT_SET_NO":999,"REV_AT_EPOCH":14802,"BSTAR":0.00025604,"MEAN_MOTION_DOT":1.09e-06,"MEAN_MOTION_DDOT":0.0},{"OBJECT_NAME":"ONEWEB-0561","OBJECT_ID":"2023-068A","EPOCH":"2026-04-14T06:13:01.431840","MEAN_MOTION":13.20772885,"ECCENTRICITY":0.0002058,"INCLINATION":87.914,"RA_OF_ASC_NODE":287.2046,"ARG_OF_PERICENTER":101.5394,"MEAN_ANOMALY":258.5971,"EPHEMERIS_TYPE":0,"CLASSIFICATION_TYPE":"U","NORAD_CAT_ID":56710,"ELEMENT_SET_NO":999,"REV_AT_EPOCH":14106,"BSTAR":0.00017665,"MEAN_MOTION_DOT":8.5e-07,"MEAN_MOTION_DDOT":0.0},{"OBJECT_NAME":"ONEWEB-0668","OBJECT_ID":"2023-068B","EPOCH":"2026-04-14T03:15:07.066944","MEAN_MOTION":13.16593878,"ECCENTRICITY":0.0001263,"INCLINATION":87.9071,"RA_OF_ASC_NODE":241.4936,"ARG_OF_PERICENTER":102.0393,"MEAN_ANOMALY":258.0879,"EPHEMERIS_TYPE":0,"CLASSIFICATION_TYPE":"U","NORAD_CAT_ID":56711,"ELEMENT_SET_NO":999,"REV_AT_EPOCH":14335,"BSTAR":0.00023165,"MEAN_MOTION_DOT":1.01e-06,"MEAN_MOTION_DDOT":0.0},{"OBJECT_NAME":"ONEWEB-0676","OBJECT_ID":"2023-068C","EPOCH":"2026-04-14T03:26:29.779008","MEAN_MOTION":13.16592914,"ECCENTRICITY":0.0001958,"INCLINATION":87.9061,"RA_OF_ASC_NODE":241.5006,"ARG_OF_PERICENTER":111.0815,"MEAN_ANOMALY":249.0526,"EPHEMERIS_TYPE":0,"CLASSIFICATION_TYPE":"U","NORAD_CAT_ID":56712,"ELEMENT_SET_NO":999,"REV_AT_EPOCH":14327,"BSTAR":0.00018364,"MEAN_MOTION_DOT":8.3e-07,"MEAN_MOTION_DDOT":0.0},{"OBJECT_NAME":"ONEWEB-0677","OBJECT_ID":"2023-068D","EPOCH":"2026-04-14T05:57:07.576704","MEAN_MOTION":13.20774168,"ECCENTRICITY":0.0001433,"INCLINATION":87.914,"RA_OF_ASC_NODE":287.1992,"ARG_OF_PERICENTER":102.6857,"MEAN_ANOMALY":257.4436,"EPHEMERIS_TYPE":0,"CLASSIFICATION_TYPE":"U","NORAD_CAT_ID":56713,"ELEMENT_SET_NO":999,"REV_AT_EPOCH":14136,"BSTAR":0.00028591,"MEAN_MOTION_DOT":1.29e-06,"MEAN_MOTION_DDOT":0.0},{"OBJECT_NAME":"ONEWEB-0678","OBJECT_ID":"2023-068E","EPOCH":"2026-04-13T21:23:49.746336","MEAN_MOTION":13.15547958,"ECCENTRICITY":0.0002064,"INCLINATION":87.8942,"RA_OF_ASC_NODE":272.0168,"ARG_OF_PERICENTER":94.1367,"MEAN_ANOMALY":265.9999,"EPHEMERIS_TYPE":0,"CLASSIFICATION_TYPE":"U","NORAD_CAT_ID":56714,"ELEMENT_SET_NO":999,"REV_AT_EPOCH":14083,"BSTAR":6.134e-06,"MEAN_MOTION_DOT":1.5e-07,"MEAN_MOTION_DDOT":0.0},{"OBJECT_NAME":"ONEWEB-0679","OBJECT_ID":"2023-068F","EPOCH":"2026-04-14T02:27:13.843584","MEAN_MOTION":13.16593429,"ECCENTRICITY":0.0001496,"INCLINATION":87.9059,"RA_OF_ASC_NODE":241.4977,"ARG_OF_PERICENTER":118.4963,"MEAN_ANOMALY":241.6319,"EPHEMERIS_TYPE":0,"CLASSIFICATION_TYPE":"U","NORAD_CAT_ID":56715,"ELEMENT_SET_NO":999,"REV_AT_EPOCH":14329,"BSTAR":-0.00019559000000000002,"MEAN_MOTION_DOT":-6.2e-07,"MEAN_MOTION_DDOT":0.0},{"OBJECT_NAME":"ONEWEB-0680","OBJECT_ID":"2023-068G","EPOCH":"2026-04-13T19:54:38.901024","MEAN_MOTION":13.21823344,"ECCENTRICITY":0.0001278,"INCLINATION":87.9204,"RA_OF_ASC_NODE":256.7842,"ARG_OF_PERICENTER":103.9343,"MEAN_ANOMALY":256.1933,"EPHEMERIS_TYPE":0,"CLASSIFICATION_TYPE":"U","NORAD_CAT_ID":56716,"ELEMENT_SET_NO":999,"REV_AT_EPOCH":14259,"BSTAR":0.00010865,"MEAN_MOTION_DOT":5.8e-07,"MEAN_MOTION_DDOT":0.0},{"OBJECT_NAME":"ONEWEB-0681","OBJECT_ID":"2023-068H","EPOCH":"2026-04-14T02:42:51.506496","MEAN_MOTION":13.21826996,"ECCENTRICITY":0.0002391,"INCLINATION":87.9194,"RA_OF_ASC_NODE":256.7331,"ARG_OF_PERICENTER":121.4033,"MEAN_ANOMALY":238.7335,"EPHEMERIS_TYPE":0,"CLASSIFICATION_TYPE":"U","NORAD_CAT_ID":56717,"ELEMENT_SET_NO":999,"REV_AT_EPOCH":14262,"BSTAR":5.3330000000000004e-06,"MEAN_MOTION_DOT":1.5e-07,"MEAN_MOTION_DDOT":0.0},{"OBJECT_NAME":"ONEWEB-0682","OBJECT_ID":"2023-068J","EPOCH":"2026-04-14T05:16:08.491872","MEAN_MOTION":13.15548995,"ECCENTRICITY":0.0001249,"INCLINATION":87.8936,"RA_OF_ASC_NODE":271.9536,"ARG_OF_PERICENTER":101.5978,"MEAN_ANOMALY":258.5292,"EPHEMERIS_TYPE":0,"CLASSIFICATION_TYPE":"U","NORAD_CAT_ID":56718,"ELEMENT_SET_NO":999,"REV_AT_EPOCH":14104,"BSTAR":0.00058752,"MEAN_MOTION_DOT":2.34e-06,"MEAN_MOTION_DDOT":0.0},{"OBJECT_NAME":"ONEWEB-0683","OBJECT_ID":"2023-068K","EPOCH":"2026-04-14T04:00:51.020352","MEAN_MOTION":13.15547837,"ECCENTRICITY":0.0001495,"INCLINATION":87.8945,"RA_OF_ASC_NODE":271.9614,"ARG_OF_PERICENTER":93.5998,"MEAN_ANOMALY":266.5304,"EPHEMERIS_TYPE":0,"CLASSIFICATION_TYPE":"U","NORAD_CAT_ID":56719,"ELEMENT_SET_NO":999,"REV_AT_EPOCH":14100,"BSTAR":-1.5641e-05,"MEAN_MOTION_DOT":7e-08,"MEAN_MOTION_DDOT":0.0},{"OBJECT_NAME":"ONEWEB-0684","OBJECT_ID":"2023-068L","EPOCH":"2026-04-14T04:12:15.600384","MEAN_MOTION":13.15548277,"ECCENTRICITY":0.0002803,"INCLINATION":87.8945,"RA_OF_ASC_NODE":271.9514,"ARG_OF_PERICENTER":73.2325,"MEAN_ANOMALY":286.9113,"EPHEMERIS_TYPE":0,"CLASSIFICATION_TYPE":"U","NORAD_CAT_ID":56720,"ELEMENT_SET_NO":999,"REV_AT_EPOCH":14083,"BSTAR":-6.3014e-05,"MEAN_MOTION_DOT":-1.1e-07,"MEAN_MOTION_DDOT":0.0}]